{"spaceTrack":{"CCSDS_OMM_VERS":"2.0","COMMENT":"GENERATED VIA SPACE-TRACK.ORG API","CREATION_DATE":"2022-07-12T07:16:17","ORIGINATOR":"18 SPCS","OBJECT_NAME":"STARLINK-4071","OBJECT_ID":"2022-053R","CENTER_NAME":"EARTH","REF_FRAME":"TEME","TIME_SYSTEM":"UTC","MEAN_ELEMENT_THEORY":"SGP4","EPOCH":"2022-07-12T06:00:00.999648","MEAN_MOTION":15.20527462,"ECCENTRICITY":0.0001458,"INCLINATION":53.2175,"RA_OF_ASC_NODE":33.8892,"ARG_OF_PERICENTER":64.5659,"MEAN_ANOMALY":135.0653,"EPHEMERIS_TYPE":0,"CLASSIFICATION_TYPE":"U","NORAD_CAT_ID":52671,"ELEMENT_SET_NO":999,"REV_AT_EPOCH":885,"BSTAR":-0.035152,"MEAN_MOTION_DOT":-0.00725423,"MEAN_MOTION_DDOT":0,"SEMIMAJOR_AXIS":6882.386,"PERIOD":94.704,"APOAPSIS":505.254,"PERIAPSIS":503.247,"OBJECT_TYPE":"PAYLOAD","RCS_SIZE":"LARGE","COUNTRY_CODE":"US","LAUNCH_DATE":"2022-05-18","SITE":"AFETR","DECAY_DATE":null,"DECAYED":0,"FILE":3512003,"GP_ID":207943158,"TLE_LINE0":"0 STARLINK-4071","TLE_LINE1":"1 52671U 22053R   22193.25001157 -.00725423  00000-0 -35152-1 0  9993","TLE_LINE2":"2 52671  53.2175  33.8892 0001458  64.5659 135.0653 15.20527462  8850"},"height_km":506.4591629404258,"latitude":-0.36343181689976983,"launch":"62615ebc0ec008379be596fa","longitude":-117.35169154991432,"velocity_kms":7.61227537255311,"version":"v1.5","id":"628ea116a8973c1694df189b"}